$$SOE
2459580.500000000, A.D. 2022-Jan-01 00:00:00.0000, 3.079009865627356E+09, 5.513094497686389E+09, -1.320012788011446E+08,
2459587.500000000, A.D. 2022-Jan-08 00:00:00.0000, 3.076591958953954E+09, 5.514503237147091E+09, -1.317993584174302E+08,
2459594.500000000, A.D. 2022-Jan-15 00:00:00.0000, 3.074173378701149E+09, 5.515910928213997E+09, -1.315974110666378E+08,
2459601.500000000, A.D. 2022-Jan-22 00:00:00.0000, 3.071754129263776E+09, 5.517317569139926E+09, -1.313954371643751E+08,
2459608.500000000, A.D. 2022-Jan-29 00:00:00.0000, 3.069334215615821E+09, 5.518723160654279E+09, -1.311934370191228E+08,
2459615.500000000, A.D. 2022-Feb-05 00:00:00.0000, 3.066913641103340E+09, 5.520127705291376E+09, -1.309914106844690E+08,
2459622.500000000, A.D. 2022-Feb-12 00:00:00.0000, 3.064492407410703E+09, 5.521531205650535E+09, -1.307893580963879E+08,
2459629.500000000, A.D. 2022-Feb-19 00:00:00.0000, 3.062070515375384E+09, 5.522933663956909E+09, -1.305872791805696E+08,
2459636.500000000, A.D. 2022-Feb-26 00:00:00.0000, 3.059647965339925E+09, 5.524335082200089E+09, -1.303851738687751E+08,
2459643.500000000, A.D. 2022-Mar-05 00:00:00.0000, 3.057224757200349E+09, 5.525735462233576E+09, -1.301830420894897E+08,
2459650.500000000, A.D. 2022-Mar-12 00:00:00.0000, 3.054800890372845E+09, 5.527134805769512E+09, -1.299808837588878E+08,
2459657.500000000, A.D. 2022-Mar-19 00:00:00.0000, 3.052376363749776E+09, 5.528533114296848E+09, -1.297786987766335E+08,
2459664.500000000, A.D. 2022-Mar-26 00:00:00.0000, 3.049951175667421E+09, 5.529930388917193E+09, -1.295764870293391E+08,
2459671.500000000, A.D. 2022-Apr-02 00:00:00.0000, 3.047525323953254E+09, 5.531326630042714E+09, -1.293742484127409E+08,
2459678.500000000, A.D. 2022-Apr-09 00:00:00.0000, 3.045098806324802E+09, 5.532721836961181E+09, -1.291719828973682E+08,
2459685.500000000, A.D. 2022-Apr-16 00:00:00.0000, 3.042671621497228E+09, 5.534116007922411E+09, -1.289696906171942E+08,
2459692.500000000, A.D. 2022-Apr-23 00:00:00.0000, 3.040243769730759E+09, 5.535509141830600E+09, -1.287673717764170E+08,
2459699.500000000, A.D. 2022-Apr-30 00:00:00.0000, 3.037815250947815E+09, 5.536901239297415E+09, -1.285650263863974E+08,
2459706.500000000, A.D. 2022-May-07 00:00:00.0000, 3.035386063482555E+09, 5.538292301082409E+09, -1.283626542750225E+08,
2459713.500000000, A.D. 2022-May-14 00:00:00.0000, 3.032956204852238E+09, 5.539682326959034E+09, -1.281602552476983E+08,
2459720.500000000, A.D. 2022-May-21 00:00:00.0000, 3.030525672519305E+09, 5.541071315765074E+09, -1.279578291516724E+08,
2459727.500000000, A.D. 2022-May-28 00:00:00.0000, 3.028094464165406E+09, 5.542459265678746E+09, -1.277553758781023E+08,
2459734.500000000, A.D. 2022-Jun-04 00:00:00.0000, 3.025662577754471E+09, 5.543846174407808E+09, -1.275528953528342E+08,
2459741.500000000, A.D. 2022-Jun-11 00:00:00.0000, 3.023230011529542E+09, 5.545232039293948E+09, -1.273503875289309E+08,
2459748.500000000, A.D. 2022-Jun-18 00:00:00.0000, 3.020796763982099E+09, 5.546616857345976E+09, -1.271478523833635E+08,
2459755.500000000, A.D. 2022-Jun-25 00:00:00.0000, 3.018362833823334E+09, 5.548000625168865E+09, -1.269452899231944E+08,
2459762.500000000, A.D. 2022-Jul-02 00:00:00.0000, 3.015928220091477E+09, 5.549383338723148E+09, -1.267427002188098E+08,
2459769.500000000, A.D. 2022-Jul-09 00:00:00.0000, 3.013492922785461E+09, 5.550764993091867E+09, -1.265400834854181E+08,
2459776.500000000, A.D. 2022-Jul-16 00:00:00.0000, 3.011056943969781E+09, 5.552145583338080E+09, -1.263374401191070E+08,
2459783.500000000, A.D. 2022-Jul-23 00:00:00.0000, 3.008620287152174E+09, 5.553525106530694E+09, -1.261347704792829E+08,
2459790.500000000, A.D. 2022-Jul-30 00:00:00.0000, 3.006182955018191E+09, 5.554903561584759E+09, -1.259320746990604E+08,
2459797.500000000, A.D. 2022-Aug-06 00:00:00.0000, 3.003744949121438E+09, 5.556280947564384E+09, -1.257293528005223E+08,
2459804.500000000, A.D. 2022-Aug-13 00:00:00.0000, 3.001306270706288E+09, 5.557657263202709E+09, -1.255266048139975E+08,
2459811.500000000, A.D. 2022-Aug-20 00:00:00.0000, 2.998866921093736E+09, 5.559032507135544E+09, -1.253238307982998E+08,
2459818.500000000, A.D. 2022-Aug-27 00:00:00.0000, 2.996426901698501E+09, 5.560406678122100E+09, -1.251210308273244E+08,
2459825.500000000, A.D. 2022-Sep-03 00:00:00.0000, 2.993986213925341E+09, 5.561779775142280E+09, -1.249182049745915E+08,
2459832.500000000, A.D. 2022-Sep-10 00:00:00.0000, 2.991544859034654E+09, 5.563151797394445E+09, -1.247153533019257E+08,
2459839.500000000, A.D. 2022-Sep-17 00:00:00.0000, 2.989102838006783E+09, 5.564522744191902E+09, -1.245124758550515E+08,
2459846.500000000, A.D. 2022-Sep-24 00:00:00.0000, 2.986660151465468E+09, 5.565892614707251E+09, -1.243095726758378E+08,
2459853.500000000, A.D. 2022-Oct-01 00:00:00.0000, 2.984216799900411E+09, 5.567261407542305E+09, -1.241066438551390E+08,
2459860.500000000, A.D. 2022-Oct-08 00:00:00.0000, 2.981772784596271E+09, 5.568629120645622E+09, -1.239036896211019E+08,
2459867.500000000, A.D. 2022-Oct-15 00:00:00.0000, 2.979328108336246E+09, 5.569995752776868E+09, -1.237007102797196E+08,
2459874.500000000, A.D. 2022-Oct-22 00:00:00.0000, 2.976882773698651E+09, 5.571361304834100E+09, -1.234977059453862E+08,
2459881.500000000, A.D. 2022-Oct-29 00:00:00.0000, 2.974436781444323E+09, 5.572725778450500E+09, -1.232946765028048E+08,
2459888.500000000, A.D. 2022-Nov-05 00:00:00.0000, 2.971990131094140E+09, 5.574089174601671E+09, -1.230916217690592E+08,
2459895.500000000, A.D. 2022-Nov-12 00:00:00.0000, 2.969542821731866E+09, 5.575451493490762E+09, -1.228885415723243E+08,
2459902.500000000, A.D. 2022-Nov-19 00:00:00.0000, 2.967094852312912E+09, 5.576812734757277E+09, -1.226854357593853E+08,
2459909.500000000, A.D. 2022-Nov-26 00:00:00.0000, 2.964646221741256E+09, 5.578172897612259E+09, -1.224823041886377E+08,
2459916.500000000, A.D. 2022-Dec-03 00:00:00.0000, 2.962196928880538E+09, 5.579531980888302E+09, -1.222791467248385E+08,
2459923.500000000, A.D. 2022-Dec-10 00:00:00.0000, 2.959746972544876E+09, 5.580889983023089E+09, -1.220759632383082E+08,
2459930.500000000, A.D. 2022-Dec-17 00:00:00.0000, 2.957296351494084E+09, 5.582246901951480E+09, -1.218727536129022E+08,
2459937.500000000, A.D. 2022-Dec-24 00:00:00.0000, 2.954845064542733E+09, 5.583602734840275E+09, -1.216695177781477E+08,
2459944.500000000, A.D. 2022-Dec-31 00:00:00.0000, 2.952393111140639E+09, 5.584957477773222E+09, -1.214662557895205E+08,
2459951.500000000, A.D. 2023-Jan-07 00:00:00.0000, 2.949940492547531E+09, 5.586311126348600E+09, -1.212629678894157E+08,
2459958.500000000, A.D. 2023-Jan-14 00:00:00.0000, 2.947487211634859E+09, 5.587663677686234E+09, -1.210596543277230E+08,
2459965.500000000, A.D. 2023-Jan-21 00:00:00.0000, 2.945033270669998E+09, 5.589015130671274E+09, -1.208563151420622E+08,
2459972.500000000, A.D. 2023-Jan-28 00:00:00.0000, 2.942578670750858E+09, 5.590365484239277E+09, -1.206529502500293E+08,
2459979.500000000, A.D. 2023-Feb-04 00:00:00.0000, 2.940123412682344E+09, 5.591714736730294E+09, -1.204495595868139E+08,
2459986.500000000, A.D. 2023-Feb-11 00:00:00.0000, 2.937667497499445E+09, 5.593062886118475E+09, -1.202461431392357E+08,
2459993.500000000, A.D. 2023-Feb-18 00:00:00.0000, 2.935210926573784E+09, 5.594409930294115E+09, -1.200427009375670E+08,
2460000.500000000, A.D. 2023-Feb-25 00:00:00.0000, 2.932753701566527E+09, 5.595755867236543E+09, -1.198392330423100E+08,
2460007.500000000, A.D. 2023-Mar-04 00:00:00.0000, 2.930295824329995E+09, 5.597100695096889E+09, -1.196357395336339E+08,
2460014.500000000, A.D. 2023-Mar-11 00:00:00.0000, 2.927837296786807E+09, 5.598444412191465E+09, -1.194322205058413E+08,
2460021.500000000, A.D. 2023-Mar-18 00:00:00.0000, 2.925378120833801E+09, 5.599787016856533E+09, -1.192286760750363E+08,
2460028.500000000, A.D. 2023-Mar-25 00:00:00.0000, 2.922918298474238E+09, 5.601128507117486E+09, -1.190251064222772E+08,
2460035.500000000, A.D. 2023-Apr-01 00:00:00.0000, 2.920457832603012E+09, 5.602468880566093E+09, -1.188215118787830E+08,
2460042.500000000, A.D. 2023-Apr-08 00:00:00.0000, 2.917996727829620E+09, 5.603808135670955E+09, -1.186178928964334E+08,
2460049.500000000, A.D. 2023-Apr-15 00:00:00.0000, 2.915534989001999E+09, 5.605146273415185E+09, -1.184142497794378E+08,
2460056.500000000, A.D. 2023-Apr-22 00:00:00.0000, 2.913072619240516E+09, 5.606483296209491E+09, -1.182105825924022E+08,
2460063.500000000, A.D. 2023-Apr-29 00:00:00.0000, 2.910609620217214E+09, 5.607819206333578E+09, -1.180068913115168E+08,
2460070.500000000, A.D. 2023-May-06 00:00:00.0000, 2.908145992920123E+09, 5.609154005687168E+09, -1.178031759118884E+08,
2460077.500000000, A.D. 2023-May-13 00:00:00.0000, 2.905681737925924E+09, 5.610487695957141E+09, -1.175994363745356E+08,
2460084.500000000, A.D. 2023-May-20 00:00:00.0000, 2.903216855415099E+09, 5.611820278709834E+09, -1.173956726748421E+08,
2460091.500000000, A.D. 2023-May-27 00:00:00.0000, 2.900751345123102E+09, 5.613151755379138E+09, -1.171918847728505E+08,
2460098.500000000, A.D. 2023-Jun-03 00:00:00.0000, 2.898285206285136E+09, 5.614482127176443E+09, -1.169880726088212E+08,
2460105.500000000, A.D. 2023-Jun-10 00:00:00.0000, 2.895818437598330E+09, 5.615811394908746E+09, -1.167842361076505E+08,
2460112.500000000, A.D. 2023-Jun-17 00:00:00.0000, 2.893351037290344E+09, 5.617139558644854E+09, -1.165803752054920E+08,
2460119.500000000, A.D. 2023-Jun-24 00:00:00.0000, 2.890883003614408E+09, 5.618466617285377E+09, -1.163764899236526E+08,
2460126.500000000, A.D. 2023-Jul-01 00:00:00.0000, 2.888414336023919E+09, 5.619792568864662E+09, -1.161725804455206E+08,
2460133.500000000, A.D. 2023-Jul-08 00:00:00.0000, 2.885945035352625E+09, 5.621117412406757E+09, -1.159686469759586E+08,
2460140.500000000, A.D. 2023-Jul-15 00:00:00.0000, 2.883475101723635E+09, 5.622441148505699E+09, -1.157646894974599E+08,
2460147.500000000, A.D. 2023-Jul-22 00:00:00.0000, 2.881004533708627E+09, 5.623763777595739E+09, -1.155607078306563E+08,
$$EOE